[{"OBJECT_NAME":"JILIN-1 06","OBJECT_ID":"2017-074C","EPOCH":"2026-03-09T22:46:57.173376","MEAN_MOTION":15.32444387,"ECCENTRICITY":0.00061285,"INCLINATION":97.4715,"RA_OF_ASC_NODE":171.0354,"ARG_OF_PERICENTER":223.0031,"MEAN_ANOMALY":137.0732,"EPHEMERIS_TYPE":0,"CLASSIFICATION_TYPE":"U","NORAD_CAT_ID":43024,"ELEMENT_SET_NO":999,"REV_AT_EPOCH":45863,"BSTAR":0.00028431628,"MEAN_MOTION_DOT":8.833e-5,"MEAN_MOTION_DDOT":0},{"OBJECT_NAME":"STARLINK-34328","OBJECT_ID":"2025-117T","EPOCH":"2026-03-09T22:28:01.412544","MEAN_MOTION":15.30217145,"ECCENTRICITY":0.000135,"INCLINATION":53.1594,"RA_OF_ASC_NODE":38.4463,"ARG_OF_PERICENTER":83.7893,"MEAN_ANOMALY":276.3262,"EPHEMERIS_TYPE":0,"CLASSIFICATION_TYPE":"U","NORAD_CAT_ID":64220,"ELEMENT_SET_NO":999,"REV_AT_EPOCH":4456,"BSTAR":0.0013149777,"MEAN_MOTION_DOT":0.00038811,"MEAN_MOTION_DDOT":0}]
